SGSAT                   
1 42703U 98067LL  17207.23110629  .00017413  00000-0  23901-3 0  9991
2 42703  51.6379 202.6171 0004175  54.1200 306.0179 15.57422594 10930
CXBN-2                  
1 42704U 98067LM  17207.25613568  .00010451  00000-0  15221-3 0  9995
2 42704  51.6383 202.7846 0003406  58.2713 301.8610 15.56336217 10945
ICECUBE                 
1 42705U 98067LN  17207.25219636  .00007688  00000-0  11289-3 0  9992
2 42705  51.6391 202.7612 0003342  60.0718 300.0605 15.56562110 11007
PHOENIX                 
1 42706U 98067LP  17207.24879320  .00010146  00000-0  14695-3 0  9991
2 42706  51.6387 202.7382 0002661  73.0187 287.1096 15.56527621 10932
X-CUBESAT               
1 42707U 98067LQ  17207.24975564  .00010203  00000-0  14788-3 0  9996
2 42707  51.6384 202.7423 0002694  72.8687 287.2599 15.56501028 10925
QBEE50-LTU-OC           
1 42708U 98067LR  17207.25136353  .00010506  00000-0  15229-3 0  9990
2 42708  51.6384 202.7532 0002765  73.1469 286.9826 15.56459234 10883
ALTAIR PATHFINDER       
1 42711U 98067LS  17207.21187181  .00006770  00000-0  10349-3 0  9991
2 42711  51.6384 203.2365 0005478  49.0881 311.0584 15.55679181 10583
SHARC                   
1 42712U 98067LT  17207.20855075  .00005293  00000-0  82590-4 0  9992
2 42712  51.6389 203.2172 0003414  54.5759 305.5550 15.55635569 10828
ZA-AEROSAT              
1 42713U 98067LU  17207.19832496  .00008374  00000-0  12446-3 0  9998
2 42713  51.6385 203.1484 0003459  47.2395 312.8887 15.56092757 10588
LINK                    
1 42714U 98067LV  17207.25984354  .00013522  00000-0  19468-3 0  9999
2 42714  51.6381 202.8079 0003832  49.9854 310.1473 15.56357233 10704
CSUNSAT 1               
1 42715U 98067LW  17207.20363759  .00009269  00000-0  13734-3 0  9998
2 42715  51.6383 203.1816 0005647  40.7968 319.3446 15.56019691 10581
UPSAT                   
1 42716U 98067LX  17207.25016286  .00012078  00000-0  17294-3 0  9991
2 42716  51.6384 202.7447 0005423 100.8981 259.2621 15.56622160 10727
SPACECUBE               
1 42717U 98067LY  17207.25686211  .00009930  00000-0  14496-3 0  9997
2 42717  51.6383 202.7894 0005406 101.5013 258.6586 15.56335019  9969
HOOPOE                  
1 42718U 98067LZ  17207.25396108  .00011653  00000-0  16797-3 0  9992
2 42718  51.6385 202.7705 0005446 100.3228 259.8378 15.56482069  9962
CHALLENGER              
1 42721U 98067MA  17207.26225217  .00013817  00000-0  19712-3 0  9993
2 42721  51.6382 202.8227 0008920  85.4665 274.7345 15.56556076  9668
NJUST-1                 
1 42722U 98067MB  17207.21277299  .00008066  00000-0  12119-3 0  9990
2 42722  51.6385 203.2428 0008571  88.4790 271.7183 15.55831916  9658
UNSW-ECO                
1 42723U 98067MC  17207.20702935  .00011322  00000-0  16528-3 0  9997
2 42723  51.6387 203.2052 0008600  86.5263 273.6712 15.56150523  9637
DUTHSAT                 
1 42724U 98067MD  17207.26695773  .00014229  00000-0  20384-3 0  9999
2 42724  51.6384 202.8550 0007849  87.0419 273.1470 15.56422905  9582
LILACSAT-1              
1 42725U 98067ME  17207.21508873  .00008495  00000-0  12741-3 0  9995
2 42725  51.6386 203.2588 0007588  89.9920 270.1941 15.55806104  9552
NSIGHT-1                
1 42726U 98067MF  17207.22333149  .00004592  00000-0  73319-4 0  9992
2 42726  51.6390 203.3145 0007443  92.6838 267.5005 15.55347355  9567
SNUSAT-1                
1 42727U 98067MG  17207.21453459  .00009437  00000-0  14049-3 0  9996
2 42727  51.6379 203.2520 0009168  56.2913 303.8951 15.55844046  9526
QBITO                   
1 42728U 98067MH  17207.20836399  .00010056  00000-0  14810-3 0  9999
2 42728  51.6388 203.2157 0004740  91.5128 268.6407 15.56079101  9363
AALTO-2                 
1 42729U 98067MJ  17207.20822986  .00010467  00000-0  15386-3 0  9992
2 42729  51.6384 203.2140 0004752  91.2966 268.8570 15.56078017  9371
SUSAT                   
1 42730U 98067MK  17207.20964760  .00009058  00000-0  13445-3 0  9999
2 42730  51.6384 203.2227 0004807  90.5059 269.6483 15.56007854  9367
I-INSPIRE II            
1 42731U 98067ML  17205.60050218  .00017716  00000-0  25442-3 0  9996
2 42731  51.6373 211.2217 0008727  39.1644 320.9978 15.56155598  9165
POLYITAN-2-SAU          
1 42732U 98067MM  17207.20707257  .00010657  00000-0  15623-3 0  9994
2 42732  51.6378 203.2013 0008693  44.4604 315.7084 15.56108794  9417
SNUSAT-1B               
1 42733U 98067MN  17207.21039369  .00010144  00000-0  14971-3 0  9994
2 42733  51.6378 203.2237 0008525  45.7768 314.3922 15.55989853  9413
EXALTA-1                
1 42734U 98067MP  17207.20594061  .00011368  00000-0  16553-3 0  9996
2 42734  51.6381 203.1950 0010429  65.4751 294.7327 15.56198692  9364
AOXIANG-1               
1 42735U 98067MQ  17207.21177630  .00008360  00000-0  12512-3 0  9996
2 42735  51.6383 203.2355 0009282  85.6564 274.5488 15.55876864 10783
BEEAGLESAT              
1 42736U 98067MR  17206.56952981  .00008118  00000-0  12158-3 0  9991
2 42736  51.6383 206.4462 0009179  82.3402 277.8631 15.55907333  9373
ATLANTIS                
1 42737U 98067MS  17207.25250204  .00020653  00000-0  28446-3 0  9993
2 42737  51.6378 202.7572 0009645  79.4948 280.7130 15.57162039  9374
PROGRESS-MS 06          
1 42756U 17033A   17206.51418347  .00001345  00000-0  27503-4 0  9991
2 42756  51.6396 207.2711 0006223  72.3525  71.7719 15.54224686  6408
ISS DEB (ROSA)          
1 42813U 98067MT  17207.11786621  .00021743  00000-0  31721-3 0  9991
2 42813  51.6408 204.1013 0006387  63.5646 296.5967 15.55592870  4756
